{"type": "FeatureCollection", "features": [ {"type": "Feature", "properties": {"norad_id": 39634, "name": "SENTINEL-1A", "group": "resource", "lat": 37.26749109274261, "lon": -175.58372367213047, "alt_km": 692.653259276336, "timestamp": "2025-12-18T23:35:48.704198+00:00", "meta": {"OBJECT_NAME": "SENTINEL-1A", "OBJECT_ID": "2014-016A", "EPOCH": "2025-12-18T14:43:08.220576", "MEAN_MOTION": 14.59201653, "ECCENTRICITY": 0.00012367, "INCLINATION": 98.1799, "RA_OF_ASC_NODE": 357.7684, "ARG_OF_PERICENTER": 81.6197, "MEAN_ANOMALY": 278.5143, "EPHEMERIS_TYPE": 0, "CLASSIFICATION_TYPE": "U", "NORAD_CAT_ID": 39634, "ELEMENT_SET_NO": 999, "REV_AT_EPOCH": 62368, "BSTAR": 4.0400189e-05, "MEAN_MOTION_DOT": 1.45e-06, "MEAN_MOTION_DDOT": 0}, "tle": {"line1": "1 39634U 14016A   25352.61328959  .00000145  00000+0  40400-4 0  9998", "line2": "2 39634  98.1799 357.7684 0001236  81.6197 278.5143 14.59201653623685"}}, "geometry": {"type": "Point", "coordinates": [-175.58372367213047, 37.26749109274261]}}, {"type": "Feature", "properties": {"norad_id": 39731, "name": "KAZEOSAT 1", "group": "resource", "lat": 81.37861171502882, "lon": -39.80196200101322, "alt_km": 743.4074197654854, "timestamp": "2025-12-18T23:35:48.704208+00:00", "meta": {"OBJECT_NAME": "KAZEOSAT 1", "OBJECT_ID": "2014-024A", "EPOCH": "2025-12-18T14:50:41.831808", "MEAN_MOTION": 14.42065513, "ECCENTRICITY": 0.00011523, "INCLINATION": 98.3434, "RA_OF_ASC_NODE": 64.3943, "ARG_OF_PERICENTER": 97.525, "MEAN_ANOMALY": 262.607, "EPHEMERIS_TYPE": 0, "CLASSIFICATION_TYPE": "U", "NORAD_CAT_ID": 39731, "ELEMENT_SET_NO": 999, "REV_AT_EPOCH": 61253, "BSTAR": 2.8750487e-05, "MEAN_MOTION_DOT": 5.2e-07, "MEAN_MOTION_DDOT": 0}, "tle": {"line1": "1 39731U 14024A   25352.61853972  .00000052  00000+0  28750-4 0  9994", "line2": "2 39731  98.3434  64.3943 0001152  97.5250 262.6070 14.42065513612533"}}, "geometry": {"type": "Point", "coordinates": [-39.80196200101322, 81.37861171502882]}}, {"type": "Feature", "properties": {"norad_id": 39766, "name": "ALOS-2", "group": "resource", "lat": 80.29568209914905, "lon": -37.74037278749887, "alt_km": 622.6071753703854, "timestamp": "2025-12-18T23:35:48.704218+00:00", "meta": {"OBJECT_NAME": "ALOS-2", "OBJECT_ID": "2014-029A", "EPOCH": "2025-12-18T13:25:38.381664", "MEAN_MOTION": 14.79477181, "ECCENTRICITY": 0.00013702, "INCLINATION": 97.9225, "RA_OF_ASC_NODE": 87.323, "ARG_OF_PERICENTER": 96.8901, "MEAN_ANOMALY": 263.2467, "EPHEMERIS_TYPE": 0, "CLASSIFICATION_TYPE": "U", "NORAD_CAT_ID": 39766, "ELEMENT_SET_NO": 999, "REV_AT_EPOCH": 62487, "BSTAR": 0.00024909877, "MEAN_MOTION_DOT": 1.81e-05, "MEAN_MOTION_DDOT": 0}, "tle": {"line1": "1 39766U 14029A   25352.55947201  .00001810  00000+0  24910-3 0  9995", "line2": "2 39766  97.9225  87.3230 0001370  96.8901 263.2467 14.79477181624870"}}, "geometry": {"type": "Point", "coordinates": [-37.74037278749887, 80.29568209914905]}}, {"type": "Feature", "properties": {"norad_id": 40010, "name": "KAZEOSAT 2", "group": "resource", "lat": 45.877838063033344, "lon": 24.83562422056373, "alt_km": 605.4865532885851, "timestamp": "2025-12-18T23:35:48.704228+00:00", "meta": {"OBJECT_NAME": "KAZEOSAT 2", "OBJECT_ID": "2014-033A", "EPOCH": "2025-12-18T14:54:44.952768", "MEAN_MOTION": 14.85179517, "ECCENTRICITY": 0.00081296, "INCLINATION": 97.5503, "RA_OF_ASC_NODE": 196.632, "ARG_OF_PERICENTER": 185.6976, "MEAN_ANOMALY": 174.4149, "EPHEMERIS_TYPE": 0, "CLASSIFICATION_TYPE": "U", "NORAD_CAT_ID": 40010, "ELEMENT_SET_NO": 999, "REV_AT_EPOCH": 62215, "BSTAR": 0.00011326115, "MEAN_MOTION_DOT": 9.2e-06, "MEAN_MOTION_DDOT": 0}, "tle": {"line1": "1 40010U 14033A   25352.62135362  .00000920  00000+0  11326-3 0  9997", "line2": "2 40010  97.5503 196.6320 0008129 185.6976 174.4149 14.85179517622159"}}, "geometry": {"type": "Point", "coordinates": [24.83562422056373, 45.877838063033344]}}, {"type": "Feature", "properties": {"norad_id": 40011, "name": "HODOYOSHI-4", "group": "resource", "lat": -81.61021388172044, "lon": -114.52436148905754, "alt_km": 614.1940954759284, "timestamp": "2025-12-18T23:35:48.704239+00:00", "meta": {"OBJECT_NAME": "HODOYOSHI-4", "OBJECT_ID": "2014-033B", "EPOCH": "2025-12-18T14:17:56.450400", "MEAN_MOTION": 14.87500275, "ECCENTRICITY": 0.00236069, "INCLINATION": 97.5407, "RA_OF_ASC_NODE": 181.1904, "ARG_OF_PERICENTER": 181.0743, "MEAN_ANOMALY": 179.0428, "EPHEMERIS_TYPE": 0, "CLASSIFICATION_TYPE": "U", "NORAD_CAT_ID": 40011, "ELEMENT_SET_NO": 999, "REV_AT_EPOCH": 62195, "BSTAR": 0.00010412077, "MEAN_MOTION_DOT": 8.96e-06, "MEAN_MOTION_DDOT": 0}, "tle": {"line1": "1 40011U 14033B   25352.59579225  .00000896  00000+0  10412-3 0  9991", "line2": "2 40011  97.5407 181.1904 0023606 181.0743 179.0428 14.87500275621958"}}, "geometry": {"type": "Point", "coordinates": [-114.52436148905754, -81.61021388172044]}}, {"type": "Feature", "properties": {"norad_id": 40013, "name": "DEIMOS-2", "group": "resource", "lat": -13.963102622414306, "lon": 46.67246983981067, "alt_km": 593.2039765205991, "timestamp": "2025-12-18T23:35:48.704249+00:00", "meta": {"OBJECT_NAME": "DEIMOS-2", "OBJECT_ID": "2014-033D", "EPOCH": "2025-12-18T14:41:18.106368", "MEAN_MOTION": 14.92997636, "ECCENTRICITY": 0.00012782, "INCLINATION": 97.6067, "RA_OF_ASC_NODE": 228.2178, "ARG_OF_PERICENTER": 108.7713, "MEAN_ANOMALY": 251.3646, "EPHEMERIS_TYPE": 0, "CLASSIFICATION_TYPE": "U", "NORAD_CAT_ID": 40013, "ELEMENT_SET_NO": 999, "REV_AT_EPOCH": 61077, "BSTAR": 0.00020533107, "MEAN_MOTION_DOT": 2.08e-05, "MEAN_MOTION_DDOT": 0}, "tle": {"line1": "1 40013U 14033D   25352.61201512  .00002080  00000+0  20533-3 0  9999", "line2": "2 40013  97.6067 228.2178 0001278 108.7713 251.3646 14.92997636610774"}}, "geometry": {"type": "Point", "coordinates": [46.67246983981067, -13.963102622414306]}}, {"type": "Feature", "properties": {"norad_id": 40015, "name": "HODOYOSHI-3", "group": "resource", "lat": 41.03962374221983, "lon": -14.760711114368839, "alt_km": 610.1451919979781, "timestamp": "2025-12-18T23:35:48.704260+00:00", "meta": {"OBJECT_NAME": "HODOYOSHI-3", "OBJECT_ID": "2014-033F", "EPOCH": "2025-12-18T10:02:01.794048", "MEAN_MOTION": 14.84825819, "ECCENTRICITY": 0.00321206, "INCLINATION": 97.6203, "RA_OF_ASC_NODE": 158.0063, "ARG_OF_PERICENTER": 228.5554, "MEAN_ANOMALY": 131.2902, "EPHEMERIS_TYPE": 0, "CLASSIFICATION_TYPE": "U", "NORAD_CAT_ID": 40015, "ELEMENT_SET_NO": 999, "REV_AT_EPOCH": 62079, "BSTAR": 0.0001607274, "MEAN_MOTION_DOT": 1.325e-05, "MEAN_MOTION_DDOT": 0}, "tle": {"line1": "1 40015U 14033F   25352.41807632  .00001325  00000+0  16073-3 0  9999", "line2": "2 40015  97.6203 158.0063 0032120 228.5554 131.2902 14.84825819620793"}}, "geometry": {"type": "Point", "coordinates": [-14.760711114368839, 41.03962374221983]}}, {"type": "Feature", "properties": {"norad_id": 40053, "name": "SPOT 7", "group": "resource", "lat": 40.71891145567315, "lon": 47.882438025838724, "alt_km": 686.7560172780113, "timestamp": "2025-12-18T23:35:48.704270+00:00", "meta": {"OBJECT_NAME": "SPOT 7", "OBJECT_ID": "2014-034A", "EPOCH": "2025-12-18T15:11:20.143392", "MEAN_MOTION": 14.60741212, "ECCENTRICITY": 0.00015405, "INCLINATION": 98.0906, "RA_OF_ASC_NODE": 54.5728, "ARG_OF_PERICENTER": 84.3023, "MEAN_ANOMALY": 275.8353, "EPHEMERIS_TYPE": 0, "CLASSIFICATION_TYPE": "U", "NORAD_CAT_ID": 40053, "ELEMENT_SET_NO": 999, "REV_AT_EPOCH": 61077, "BSTAR": 8.9219185e-05, "MEAN_MOTION_DOT": 3.9e-06, "MEAN_MOTION_DDOT": 0}, "tle": {"line1": "1 40053U 14034A   25352.63287203  .00000390  00000+0  89219-4 0  9996", "line2": "2 40053  98.0906  54.5728 0001540  84.3023 275.8353 14.60741212610779"}}, "geometry": {"type": "Point", "coordinates": [47.882438025838724, 40.71891145567315]}}, {"type": "Feature", "properties": {"norad_id": 40072, "name": "SKYSAT-B", "group": "resource", "lat": -33.28628275524674, "lon": 111.47758552337561, "alt_km": 611.7160728346807, "timestamp": "2025-12-18T23:35:48.704280+00:00", "meta": {"OBJECT_NAME": "SKYSAT-B", "OBJECT_ID": "2014-037D", "EPOCH": "2025-12-18T09:43:24.077856", "MEAN_MOTION": 14.87347207, "ECCENTRICITY": 0.00064963, "INCLINATION": 98.3618, "RA_OF_ASC_NODE": 296.4105, "ARG_OF_PERICENTER": 134.0762, "MEAN_ANOMALY": 226.0989, "EPHEMERIS_TYPE": 0, "CLASSIFICATION_TYPE": "U", "NORAD_CAT_ID": 40072, "ELEMENT_SET_NO": 999, "REV_AT_EPOCH": 61908, "BSTAR": 0.00016024268, "MEAN_MOTION_DOT": 1.387e-05, "MEAN_MOTION_DDOT": 0}, "tle": {"line1": "1 40072U 14037D   25352.40513979  .00001387  00000+0  16024-3 0  9997", "line2": "2 40072  98.3618 296.4105 0006496 134.0762 226.0989 14.87347207619088"}}, "geometry": {"type": "Point", "coordinates": [111.47758552337561, -33.28628275524674]}}, {"type": "Feature", "properties": {"norad_id": 40115, "name": "WORLDVIEW-3 (WV-3)", "group": "resource", "lat": 58.807951071828995, "lon": 51.96577160814604, "alt_km": 608.7365515379943, "timestamp": "2025-12-18T23:35:48.704290+00:00", "meta": {"OBJECT_NAME": "WORLDVIEW-3 (WV-3)", "OBJECT_ID": "2014-048A", "EPOCH": "2025-12-18T15:14:28.275936", "MEAN_MOTION": 14.84660894, "ECCENTRICITY": 0.00016824, "INCLINATION": 97.8775, "RA_OF_ASC_NODE": 64.8416, "ARG_OF_PERICENTER": 139.1546, "MEAN_ANOMALY": 220.9795, "EPHEMERIS_TYPE": 0, "CLASSIFICATION_TYPE": "U", "NORAD_CAT_ID": 40115, "ELEMENT_SET_NO": 999, "REV_AT_EPOCH": 61511, "BSTAR": 0.00010389134, "MEAN_MOTION_DOT": 8.25e-06, "MEAN_MOTION_DDOT": 0}, "tle": {"line1": "1 40115U 14048A   25352.63504949  .00000825  00000+0  10389-3 0  9993", "line2": "2 40115  97.8775  64.8416 0001682 139.1546 220.9795 14.84660894615119"}}, "geometry": {"type": "Point", "coordinates": [51.96577160814604, 58.807951071828995]}}]}